{
    "links": {
        "self": "http://www.neowsapp.com/rest/v1/neo/3799301?api_key=iIulBulltgU6a56xZRHN4H3l9WmuAYTsLGpBGhQ2"
    },
    "id": "3799301",
    "neo_reference_id": "3799301",
    "name": "(2018 CX2)",
    "designation": "2018 CX2",
    "nasa_jpl_url": "http://ssd.jpl.nasa.gov/sbdb.cgi?sstr=3799301",
    "absolute_magnitude_h": 25.5,
    "estimated_diameter": {
        "kilometers": {
            "estimated_diameter_min": 0.0211132445,
            "estimated_diameter_max": 0.0472106499
        },
        "meters": {
            "estimated_diameter_min": 21.113244479,
            "estimated_diameter_max": 47.2106498806
        },
        "miles": {
            "estimated_diameter_min": 0.0131191578,
            "estimated_diameter_max": 0.0293353287
        },
        "feet": {
            "estimated_diameter_min": 69.2691770164,
            "estimated_diameter_max": 154.8905885541
        }
    },
    "is_potentially_hazardous_asteroid": false,
    "close_approach_data": [
        {
            "close_approach_date": "2018-02-16",
            "close_approach_date_full": "2018-Feb-16 15:54",
            "epoch_date_close_approach": 1518796440000,
            "relative_velocity": {
                "kilometers_per_second": "13.8707020041",
                "kilometers_per_hour": "49934.527214832",
                "miles_per_hour": "31027.373313016"
            },
            "miss_distance": {
                "astronomical": "0.0441992387",
                "lunar": "17.1935038543",
                "kilometers": "6612111.965141569",
                "miles": "4108575.8579448922"
            },
            "orbiting_body": "Earth"
        }
    ],
    "orbital_data": {
        "orbit_id": "1",
        "orbit_determination_date": "2018-02-12 07:42:05",
        "first_observation_date": "2018-02-09",
        "last_observation_date": "2018-02-12",
        "data_arc_in_days": 3,
        "observations_used": 26,
        "orbit_uncertainty": "8",
        "minimum_orbit_intersection": ".0411086",
        "jupiter_tisserand_invariant": "3.482",
        "epoch_osculation": "2458159.5",
        "eccentricity": ".5940109832980708",
        "semi_major_axis": "2.114046968658351",
        "inclination": "5.609243945565589",
        "ascending_node_longitude": "125.055150659557",
        "orbital_period": "1122.717196797428",
        "perihelion_distance": ".8582798500672979",
        "perihelion_argument": "75.66646506006906",
        "aphelion_distance": "3.369814087249404",
        "perihelion_time": "2458203.195156393358",
        "mean_anomaly": "345.9891196585572",
        "mean_motion": ".3206506509625992",
        "equinox": "J2000",
        "orbit_class": {
            "orbit_class_type": "APO",
            "orbit_class_description": "Near-Earth asteroid orbits which cross the Earth’s orbit similar to that of 1862 Apollo",
            "orbit_class_range": "a (semi-major axis) > 1.0 AU; q (perihelion) < 1.017 AU"
        }
    },
    "is_sentry_object": false
}